NORAD_CAT_ID,OBJECT_NAME,OBJECT_TYPE,EPOCH,MEAN_MOTION,ECCENTRICITY,INCLINATION,RA_OF_ASC_NODE,ARG_OF_PERICENTER,MEAN_ANOMALY,BSTAR,MEAN_MOTION_DOT,MEAN_MOTION_DDOT,TLE_LINE0,TLE_LINE1,TLE_LINE2,SEMIMAJOR_AXIS,PERIOD,APOGEE,PERIGEE,DECAYED
53540.0,STARLINK-4486,PAYLOAD,2022-10-01 22:00:00,15.56141737,0.0001273,53.2174,301.7057,66.997,137.5457,-0.016346,-0.01058404,0.0,0 STARLINK-4486,1 53540U 22101P   22274.91667824 -.01058404  00000-0 -16346-1 0  9998,2 53540  53.2174 301.7057 0001273  66.9970 137.5457 15.56141737  1300,6776.973000000001,92.537,399.7,397.975,0.0
53540.0,STARLINK-4486,PAYLOAD,2022-10-02 06:00:00,15.55392776,0.0001219,53.2173,300.0978,74.8084,197.6985,-0.01706,-0.01072797,0.0,0 STARLINK-4486,1 53540U 22101P   22275.25001157 -.01072797  00000-0 -17060-1 0  9992,2 53540  53.2173 300.0978 0001219  74.8084 197.6985 15.55392776  6855,6779.148,92.581,401.839,400.187,0.0
53540.0,STARLINK-4486,PAYLOAD,2022-10-02 14:00:01,15.54644771,0.0001097999999999,53.2167,298.4909,56.2953,283.2613,-0.017762,-0.0108513999999999,0.0,0 STARLINK-4486,1 53540U 22101P   22275.58334491 -.01085140  00000-0 -17762-1 0  9993,2 53540  53.2167 298.4909 0001098  56.2953 283.2613 15.54644771  1305,6781.321999999999,92.626,403.932,402.443,0.0
53540.0,STARLINK-4486,PAYLOAD,2022-10-02 22:00:00,15.53863272,0.0001202,53.2174,296.8805,53.4256,352.2913,-0.01779,-0.01058662,0.0,0 STARLINK-4486,1 53540U 22101P   22275.91667824 -.01058662  00000-0 -17790-1 0  9999,2 53540  53.2174 296.8805 0001202  53.4256 352.2913 15.53863272  1300,6783.596,92.672,406.276,404.646,0.0
53540.0,STARLINK-4486,PAYLOAD,2022-10-03 06:00:00,15.53114873,0.0001259,53.2171,295.2786,65.0433,45.8991,-0.018565,-0.01073463,0.0,0 STARLINK-4486,1 53540U 22101P   22276.25001157 -.01073463  00000-0 -18565-1 0  9995,2 53540  53.2171 295.2786 0001259  65.0433  45.8991 15.53114873  7017,6785.775,92.717,408.494,406.786,0.0
53540.0,STARLINK-4486,PAYLOAD,2022-10-03 14:00:01,15.52333574,0.0001409999999999,53.2165,293.6767,59.4757,115.7967,-0.018516,-0.01043573,0.0,0 STARLINK-4486,1 53540U 22101P   22276.58334491 -.01043573  00000-0 -18516-1 0  9996,2 53540  53.2165 293.6767 0001410  59.4757 115.7967 15.52333574  1302,6788.052,92.764,410.874,408.96,0.0
53540.0,STARLINK-4486,PAYLOAD,2022-10-03 22:00:00,15.51587016,0.0001304,53.2171,292.0736,59.6609,179.0135,-0.019362,-0.01060464,0.0,0 STARLINK-4486,1 53540U 22101P   22276.91667824 -.01060464  00000-0 -19362-1 0  9990,2 53540  53.2171 292.0736 0001304  59.6609 179.0135 15.51587016  1309,6790.229,92.808,412.979,411.208,0.0
53540.0,STARLINK-4486,PAYLOAD,2022-10-04 06:00:00,15.50730007,0.0001548,53.2173,290.4752,58.8355,242.3526,-0.015108,-0.00810469,0.0,0 STARLINK-4486,1 53540U 22101P   22277.25001157 -.00810469  00000-0 -15108-1 0  9990,2 53540  53.2173 290.4752 0001548  58.8355 242.3526 15.50730007  7167,6792.73,92.859,415.647,413.544,0.0
53540.0,STARLINK-4486,PAYLOAD,2022-10-04 14:00:01,15.50042262,0.0001513,53.2165,288.8819,62.7151,300.0541,-0.0042616999999999,-0.00236489,0.0,0 STARLINK-4486,1 53540U 22101P   22277.58334491 -.00236489  00000-0 -42617-2 0  9996,2 53540  53.2165 288.8819 0001513  62.7151 300.0541 15.50042262  1301,6794.74,92.901,417.633,415.577,0.0
53540.0,STARLINK-4486,PAYLOAD,2022-10-04 22:00:00,15.49884482,0.0001183,53.2173,287.2848,84.5246,339.2429,1.783e-05,5.61e-06,0.0,0 STARLINK-4486,1 53540U 22101P   22277.91667824  .00000561  00000-0  17830-4 0  9991,2 53540  53.2173 287.2848 0001183  84.5246 339.2429 15.49884482  7272,6795.201,92.91,417.87,416.262,0.0
53540.0,STARLINK-4486,PAYLOAD,2022-10-05 14:00:01,15.49862201,0.0001402,53.2145,284.1104,56.4621,129.2718,0.00021015,0.00011484,0.0,0 STARLINK-4486,1 53540U 22101P   22278.58335648  .00011484  00000-0  21015-3 0  9996,2 53540  53.2145 284.1104 0001402  56.4621 129.2718 15.49862201  7375,6795.266,92.911,418.084,416.17800000000005,0.0
53540.0,STARLINK-4486,PAYLOAD,2022-10-05 22:00:00,15.49851135,0.000132,53.2144,282.5155,65.3263,181.2406,0.0011742,0.0006667999999999,0.0,0 STARLINK-4486,1 53540U 22101P   22278.91667824  .00066680  00000-0  11742-2 0  9990,2 53540  53.2144 282.5155 0001320  65.3263 181.2406 15.49851135  1305,6795.2980000000025,92.912,418.06,416.266,0.0
53540.0,STARLINK-4486,PAYLOAD,2022-10-06 14:00:01,15.49946508,0.0001395999999999,53.2136,279.331,55.2764,313.1237,-0.0010052,-0.00057211,0.0,0 STARLINK-4486,1 53540U 22101P   22279.58334491 -.00057211  00000-0 -10052-2 0  9990,2 53540  53.2136 279.3310 0001396  55.2764 313.1237 15.49946508  1307,6795.019,92.906,417.833,415.936,0.0
53540.0,STARLINK-4486,PAYLOAD,2022-10-06 22:42:55,15.49861979,0.000118,53.2136,277.5936,66.3828,169.3131,0.0010412,0.00059041,0.0,0 STARLINK-4486,1 53540U 22101P   22279.94646991  .00059041  00000-0  10412-2 0  9992,2 53540  53.2136 277.5936 0001180  66.3828 169.3131 15.49861979  7584,6795.266,92.911,417.9330000000001,416.33,0.0
53540.0,STARLINK-4486,PAYLOAD,2022-10-07 14:00:01,15.49904613,0.0001408,53.2132,274.5504,59.7419,131.487,-0.00097112,-0.00055219,0.0,0 STARLINK-4486,1 53540U 22101P   22280.58334491 -.00055219  00000-0 -97112-3 0  9991,2 53540  53.2132 274.5504 0001408  59.7419 131.4870 15.49904613  7687,6795.142,92.909,417.964,416.05,0.0
53540.0,STARLINK-4486,PAYLOAD,2022-10-07 22:00:00,15.50073967,0.000123,53.2149,272.9504,79.0396,173.0694,-0.010896,-0.00579041,0.0,0 STARLINK-4486,1 53540U 22101P   22280.91667824 -.00579041  00000-0 -10896-1 0  9993,2 53540  53.2149 272.9504 0001230  79.0396 173.0694 15.50073967  1309,6794.647,92.899,417.348,415.676,0.0
53540.0,STARLINK-4486,PAYLOAD,2022-10-08 06:00:00,15.49679477,9.98e-05,53.2166,271.3529,76.4874,236.5222,-0.010473,-0.00550774,0.0,0 STARLINK-4486,1 53540U 22101P   22281.25001157 -.00550774  00000-0 -10473-1 0  9995,2 53540  53.2166 271.3529 0000998  76.4874 236.5222 15.49679477  7786,6795.8,92.922,418.343,416.987,0.0
53540.0,STARLINK-4486,PAYLOAD,2022-10-08 14:00:01,15.4926402,0.0001234,53.2164,269.7584,50.1411,323.3324,-0.020208,-0.01022202,0.0,0 STARLINK-4486,1 53540U 22101P   22281.58334491 -.01022202  00000-0 -20208-1 0  9999,2 53540  53.2164 269.7584 0001234  50.1411 323.3324 15.49264020  7845,6797.015,92.947,419.719,418.041,0.0
53540.0,STARLINK-4486,PAYLOAD,2022-10-08 22:00:00,15.48526838,0.0001363,53.217,268.1632,55.92100000000001,17.279,-0.021462,-0.01054515,0.0,0 STARLINK-4486,1 53540U 22101P   22281.91667824 -.01054515  00000-0 -21462-1 0  9990,2 53540  53.2170 268.1632 0001363  55.9210  17.2790 15.48526838  1300,6799.172,92.992,421.964,420.11,0.0
53540.0,STARLINK-4486,PAYLOAD,2022-10-09 06:00:00,15.47772502,0.0001307,53.217,266.573,74.1573,57.8618,-0.022197,-0.0106136,0.0,0 STARLINK-4486,1 53540U 22101P   22282.25001157 -.01061360  00000-0 -22197-1 0  9991,2 53540  53.2170 266.5730 0001307  74.1573  57.8618 15.47772502  7949,6801.380999999999,93.037,424.135,422.357,0.0
53540.0,STARLINK-4486,PAYLOAD,2022-10-09 14:00:01,15.47013034,0.0001314,53.2167,264.9823,64.9716,124.9579,-0.022803,-0.0106171,0.0,0 STARLINK-4486,1 53540U 22101P   22282.58334491 -.01061710  00000-0 -22803-1 0  9990,2 53540  53.2167 264.9823 0001314  64.9716 124.9579 15.47013034  1308,6803.607,93.083,426.366,424.578,0.0
53540.0,STARLINK-4486,PAYLOAD,2022-10-09 22:00:00,15.46250591,0.0001291999999999,53.2175,263.3918,74.3696,172.5592,-0.0232889999999999,-0.01056465,0.0,0 STARLINK-4486,1 53540U 22101P   22282.91667824 -.01056465  00000-0 -23289-1 0  9996,2 53540  53.2175 263.3918 0001292  74.3696 172.5592 15.46250591  1306,6805.843000000003,93.129,428.587,426.829,0.0
53540.0,STARLINK-4486,PAYLOAD,2022-10-10 06:00:00,15.45491884,0.0001242,53.2174,261.8074,69.0119,233.9999,-0.0239449999999999,-0.0105791,0.0,0 STARLINK-4486,1 53540U 22101P   22283.25001157 -.01057910  00000-0 -23945-1 0  9990,2 53540  53.2174 261.8074 0001242  69.0119 233.9999 15.45491884  8094,6808.07,93.174,430.781,429.09,0.0
53540.0,STARLINK-4486,PAYLOAD,2022-10-10 14:00:01,15.4473299,0.000127,53.2172,260.2219,51.6109,306.5732,-0.024607,-0.01059017,0.0,0 STARLINK-4486,1 53540U 22101P   22283.58334491 -.01059017  00000-0 -24607-1 0  9992,2 53540  53.2172 260.2219 0001270  51.6109 306.5732 15.44732990  1307,6810.3,93.22,433.03,431.3,0.0
53540.0,STARLINK-4486,PAYLOAD,2022-10-10 22:00:01,15.43970932,0.0001315999999999,53.2175,258.6379,53.8085,358.7004,-0.0251319999999999,-0.01054245,0.0,0 STARLINK-4486,1 53540U 22101P   22283.91668981 -.01054245  00000-0 -25132-1 0  9995,2 53540  53.2175 258.6379 0001316  53.8085 358.7004 15.43970932  1306,6812.54,93.266,435.302,433.509,0.0
53540.0,STARLINK-4486,PAYLOAD,2022-10-11 06:00:00,15.43214181,0.0001426999999999,53.2174,257.0591,56.0434,49.7453,-0.025903,-0.01073376,0.0,0 STARLINK-4486,1 53540U 22101P   22284.25001157 -.01073376  00000-0 -25903-1 0  9991,2 53540  53.2174 257.0591 0001427  56.0434  49.7453 15.43214181  8253,6814.767,93.312,437.605,435.66,0.0
53540.0,STARLINK-4486,PAYLOAD,2022-10-11 14:00:01,15.42453635,0.0001415,53.2172,255.4789,59.8625,98.3612,-0.0265329999999999,-0.01071682,0.0,0 STARLINK-4486,1 53540U 22101P   22284.58334491 -.01071682  00000-0 -26533-1 0  9995,2 53540  53.2172 255.4789 0001415  59.8625  98.3612 15.42453635  1306,6817.007,93.358,439.837,437.908,0.0
53540.0,STARLINK-4486,PAYLOAD,2022-10-11 22:00:00,15.41695258,0.0001419,53.2167,253.9017,63.6885,146.0549,-0.027222,-0.01071783,0.0,0 STARLINK-4486,1 53540U 22101P   22284.91667824 -.01071783  00000-0 -27222-1 0  9999,2 53540  53.2167 253.9017 0001419  63.6885 146.0549 15.41695258  1300,6819.243,93.404,442.075,440.14,0.0
53540.0,STARLINK-4486,PAYLOAD,2022-10-12 06:00:00,15.40933911,0.0001335,53.2174,252.327,71.8508,188.5019,-0.027872,-0.01069886,0.0,0 STARLINK-4486,1 53540U 22101P   22285.25001157 -.01069886  00000-0 -27872-1 0  9990,2 53540  53.2174 252.3270 0001335  71.8508 188.5019 15.40933911  8403,6821.489000000001,93.45,444.264,442.443,0.0
